{
  "type": "FeatureCollection",
  "features": [
    {
      "type": "Feature",
      "properties": {
        "norad_id": 29876,
        "name": "FENGYUN 1C DEB",
        "group": "fengyun-1c-debris",
        "lat": 2.923126317551839,
        "lon": -142.294179433752,
        "alt_km": 868.3594857383914,
        "timestamp": "2025-12-12T16:50:33.416616+00:00",
        "meta_object_name": "FENGYUN 1C DEB",
        "meta_object_id": "1999-025FW",
        "meta_epoch": "2025-12-12T02:37:25.752576",
        "meta_mean_motion": 14.20296781,
        "meta_eccentricity": 0.0061544,
        "meta_inclination": 98.3334,
        "meta_ra_of_asc_node": 36.7187,
        "meta_arg_of_pericenter": 19.226,
        "meta_mean_anomaly": 9.9431,
        "meta_ephemeris_type": 0,
        "meta_classification_type": "U",
        "meta_norad_cat_id": 29876,
        "meta_element_set_no": 999,
        "meta_rev_at_epoch": 97908,
        "meta_bstar": 0.00020712215,
        "meta_mean_motion_dot": 4.11e-06,
        "meta_mean_motion_ddot": 0,
        "tle_line1": "1 29876U 99025FW  25346.10932584  .00000411  00000+0  20712-3 0  9999",
        "tle_line2": "2 29876  98.3334  36.7187 0061544  19.2260   9.9431 14.20296781979085"
      },
      "geometry": {
        "type": "Point",
        "coordinates": [
          -142.294179433752,
          2.923126317551839
        ]
      }
    },
    {
      "type": "Feature",
      "properties": {
        "norad_id": 29877,
        "name": "FENGYUN 1C DEB",
        "group": "fengyun-1c-debris",
        "lat": 36.128054746513136,
        "lon": -14.281134648472303,
        "alt_km": 839.568782736279,
        "timestamp": "2025-12-12T16:50:33.416626+00:00",
        "meta_object_name": "FENGYUN 1C DEB",
        "meta_object_id": "1999-025FX",
        "meta_epoch": "2025-12-12T00:04:30.760320",
        "meta_mean_motion": 14.24789214,
        "meta_eccentricity": 0.0045822,
        "meta_inclination": 98.5372,
        "meta_ra_of_asc_node": 351.3346,
        "meta_arg_of_pericenter": 220.5707,
        "meta_mean_anomaly": 194.6328,
        "meta_ephemeris_type": 0,
        "meta_classification_type": "U",
        "meta_norad_cat_id": 29877,
        "meta_element_set_no": 999,
        "meta_rev_at_epoch": 97963,
        "meta_bstar": 0.00069616,
        "meta_mean_motion_dot": 1.598e-05,
        "meta_mean_motion_ddot": 0,
        "tle_line1": "1 29877U 99025FX  25346.00313380  .00001598  00000+0  69616-3 0  9999",
        "tle_line2": "2 29877  98.5372 351.3346 0045822 220.5707 194.6328 14.24789214979637"
      },
      "geometry": {
        "type": "Point",
        "coordinates": [
          -14.281134648472303,
          36.128054746513136
        ]
      }
    },
    {
      "type": "Feature",
      "properties": {
        "norad_id": 29878,
        "name": "FENGYUN 1C DEB",
        "group": "fengyun-1c-debris",
        "lat": 46.02444069351735,
        "lon": 151.9525311408618,
        "alt_km": 544.1829181373405,
        "timestamp": "2025-12-12T16:50:33.416636+00:00",
        "meta_object_name": "FENGYUN 1C DEB",
        "meta_object_id": "1999-025FY",
        "meta_epoch": "2025-12-11T10:24:42.593184",
        "meta_mean_motion": 15.09378113,
        "meta_eccentricity": 0.00277933,
        "meta_inclination": 96.9483,
        "meta_ra_of_asc_node": 158.0641,
        "meta_arg_of_pericenter": 179.0047,
        "meta_mean_anomaly": 181.1244,
        "meta_ephemeris_type": 0,
        "meta_classification_type": "U",
        "meta_norad_cat_id": 29878,
        "meta_element_set_no": 999,
        "meta_rev_at_epoch": 98628,
        "meta_bstar": 0.014291392,
        "meta_mean_motion_dot": 0.00237557,
        "meta_mean_motion_ddot": 0,
        "tle_line1": "1 29878U 99025FY  25345.43382631  .00237557  00000+0  14291-1 0  9994",
        "tle_line2": "2 29878  96.9483 158.0641 0027793 179.0047 181.1244 15.09378113986288"
      },
      "geometry": {
        "type": "Point",
        "coordinates": [
          151.9525311408618,
          46.02444069351735
        ]
      }
    },
    {
      "type": "Feature",
      "properties": {
        "norad_id": 29880,
        "name": "FENGYUN 1C DEB",
        "group": "fengyun-1c-debris",
        "lat": -63.49694956439381,
        "lon": -77.95472786504105,
        "alt_km": 1086.0865924695463,
        "timestamp": "2025-12-12T16:50:33.416646+00:00",
        "meta_object_name": "FENGYUN 1C DEB",
        "meta_object_id": "1999-025GA",
        "meta_epoch": "2025-12-12T05:49:05.501856",
        "meta_mean_motion": 13.93907095,
        "meta_eccentricity": 0.0231726,
        "meta_inclination": 98.1947,
        "meta_ra_of_asc_node": 264.8407,
        "meta_arg_of_pericenter": 102.8577,
        "meta_mean_anomaly": 49.3616,
        "meta_ephemeris_type": 0,
        "meta_classification_type": "U",
        "meta_norad_cat_id": 29880,
        "meta_element_set_no": 999,
        "meta_rev_at_epoch": 95555,
        "meta_bstar": 0.0017580514,
        "meta_mean_motion_dot": 2.865e-05,
        "meta_mean_motion_ddot": 0,
        "tle_line1": "1 29880U 99025GA  25346.24242479  .00002865  00000+0  17581-2 0  9990",
        "tle_line2": "2 29880  98.1947 264.8407 0231726 102.8577  49.3616 13.93907095955553"
      },
      "geometry": {
        "type": "Point",
        "coordinates": [
          -77.95472786504105,
          -63.49694956439381
        ]
      }
    },
    {
      "type": "Feature",
      "properties": {
        "norad_id": 29881,
        "name": "FENGYUN 1C DEB",
        "group": "fengyun-1c-debris",
        "lat": 31.713171444901402,
        "lon": -46.55745181288859,
        "alt_km": 865.625999262742,
        "timestamp": "2025-12-12T16:50:33.416656+00:00",
        "meta_object_name": "FENGYUN 1C DEB",
        "meta_object_id": "1999-025GB",
        "meta_epoch": "2025-12-11T21:31:25.133088",
        "meta_mean_motion": 13.59609143,
        "meta_eccentricity": 0.0292302,
        "meta_inclination": 98.722,
        "meta_ra_of_asc_node": 318.1676,
        "meta_arg_of_pericenter": 73.9209,
        "meta_mean_anomaly": 342.554,
        "meta_ephemeris_type": 0,
        "meta_classification_type": "U",
        "meta_norad_cat_id": 29881,
        "meta_element_set_no": 999,
        "meta_rev_at_epoch": 93223,
        "meta_bstar": 0.0032782,
        "meta_mean_motion_dot": 3.186e-05,
        "meta_mean_motion_ddot": 0,
        "tle_line1": "1 29881U 99025GB  25345.89681867  .00003186  00000+0  32782-2 0  9996",
        "tle_line2": "2 29881  98.7220 318.1676 0292302  73.9209 342.5540 13.59609143932231"
      },
      "geometry": {
        "type": "Point",
        "coordinates": [
          -46.55745181288859,
          31.713171444901402
        ]
      }
    },
    {
      "type": "Feature",
      "properties": {
        "norad_id": 29884,
        "name": "FENGYUN 1C DEB",
        "group": "fengyun-1c-debris",
        "lat": -14.575035464711473,
        "lon": 22.652098860722873,
        "alt_km": 790.0852161589073,
        "timestamp": "2025-12-12T16:50:33.416666+00:00",
        "meta_object_name": "FENGYUN 1C DEB",
        "meta_object_id": "1999-025GE",
        "meta_epoch": "2025-12-12T02:01:28.711776",
        "meta_mean_motion": 14.40292854,
        "meta_eccentricity": 0.00445354,
        "meta_inclination": 99.6036,
        "meta_ra_of_asc_node": 19.437,
        "meta_arg_of_pericenter": 138.871,
        "meta_mean_anomaly": 247.1513,
        "meta_ephemeris_type": 0,
        "meta_classification_type": "U",
        "meta_norad_cat_id": 29884,
        "meta_element_set_no": 999,
        "meta_rev_at_epoch": 98540,
        "meta_bstar": 0.0010110232,
        "meta_mean_motion_dot": 3.189e-05,
        "meta_mean_motion_ddot": 0,
        "tle_line1": "1 29884U 99025GE  25346.08436009  .00003189  00000+0  10110-2 0  9991",
        "tle_line2": "2 29884  99.6036  19.4370 0044535 138.8710 247.1513 14.40292854985407"
      },
      "geometry": {
        "type": "Point",
        "coordinates": [
          22.652098860722873,
          -14.575035464711473
        ]
      }
    },
    {
      "type": "Feature",
      "properties": {
        "norad_id": 29885,
        "name": "FENGYUN 1C DEB",
        "group": "fengyun-1c-debris",
        "lat": -28.727938695413176,
        "lon": 97.11744075453645,
        "alt_km": 791.5637253118939,
        "timestamp": "2025-12-12T16:50:33.416677+00:00",
        "meta_object_name": "FENGYUN 1C DEB",
        "meta_object_id": "1999-025GF",
        "meta_epoch": "2025-12-12T06:21:00.632160",
        "meta_mean_motion": 14.13580872,
        "meta_eccentricity": 0.0118333,
        "meta_inclination": 98.3553,
        "meta_ra_of_asc_node": 281.3292,
        "meta_arg_of_pericenter": 165.6216,
        "meta_mean_anomaly": 338.8619,
        "meta_ephemeris_type": 0,
        "meta_classification_type": "U",
        "meta_norad_cat_id": 29885,
        "meta_element_set_no": 999,
        "meta_rev_at_epoch": 97450,
        "meta_bstar": 0.00019683381,
        "meta_mean_motion_dot": 3.57e-06,
        "meta_mean_motion_ddot": 0,
        "tle_line1": "1 29885U 99025GF  25346.26459065  .00000357  00000+0  19683-3 0  9998",
        "tle_line2": "2 29885  98.3553 281.3292 0118333 165.6216 338.8619 14.13580872974502"
      },
      "geometry": {
        "type": "Point",
        "coordinates": [
          97.11744075453645,
          -28.727938695413176
        ]
      }
    }
  ]
}